[{"OBJECT_NAME":"STARLINK-36265","OBJECT_ID":"2025-304S","EPOCH":"2026-03-09T16:54:06.355008","MEAN_MOTION":14.98297439,"ECCENTRICITY":0.00044471,"INCLINATION":70.002,"RA_OF_ASC_NODE":174.5517,"ARG_OF_PERICENTER":251.031,"MEAN_ANOMALY":109.0367,"EPHEMERIS_TYPE":0,"CLASSIFICATION_TYPE":"U","NORAD_CAT_ID":67208,"ELEMENT_SET_NO":999,"REV_AT_EPOCH":1388,"BSTAR":-0.0010792203,"MEAN_MOTION_DOT":-0.00012937,"MEAN_MOTION_DDOT":0},{"OBJECT_NAME":"CZ-4B DEB","OBJECT_ID":"2006-015D","EPOCH":"2026-03-08T23:49:50.125728","MEAN_MOTION":14.74549733,"ECCENTRICITY":0.01202299,"INCLINATION":97.7844,"RA_OF_ASC_NODE":81.2278,"ARG_OF_PERICENTER":82.9024,"MEAN_ANOMALY":278.5839,"EPHEMERIS_TYPE":0,"CLASSIFICATION_TYPE":"U","NORAD_CAT_ID":29537,"ELEMENT_SET_NO":999,"REV_AT_EPOCH":4708,"BSTAR":0.0014359335,"MEAN_MOTION_DOT":0.00010702,"MEAN_MOTION_DDOT":0}]
